{"type": "FeatureCollection", "features": [ {"type": "Feature", "properties": {"norad_id": 33492, "name": "GOSAT (IBUKI)", "group": "resource", "lat": -79.38443912268846, "lon": 146.99565176050388, "alt_km": 676.8708145126266, "timestamp": "2025-12-15T04:01:20.099437+00:00", "meta": {"OBJECT_NAME": "GOSAT (IBUKI)", "OBJECT_ID": "2009-002A", "EPOCH": "2025-12-14T07:07:40.584000", "MEAN_MOTION": 14.67558841, "ECCENTRICITY": 9.46e-05, "INCLINATION": 98.077, "RA_OF_ASC_NODE": 96.8786, "ARG_OF_PERICENTER": 94.1589, "MEAN_ANOMALY": 265.9723, "EPHEMERIS_TYPE": 0, "CLASSIFICATION_TYPE": "U", "NORAD_CAT_ID": 33492, "ELEMENT_SET_NO": 999, "REV_AT_EPOCH": 90434, "BSTAR": 0.00022232036, "MEAN_MOTION_DOT": 1.213e-05, "MEAN_MOTION_DDOT": 0}, "tle": {"line1": "1 33492U 09002A   25348.29699750  .00001213  00000+0  22232-3 0  9991", "line2": "2 33492  98.0770  96.8786 0000946  94.1589 265.9723 14.67558841904346"}}, "geometry": {"type": "Point", "coordinates": [146.99565176050388, -79.38443912268846]}}, {"type": "Feature", "properties": {"norad_id": 35681, "name": "DEIMOS-1", "group": "resource", "lat": 58.26147852116625, "lon": 136.9974654902336, "alt_km": 637.8358638090249, "timestamp": "2025-12-15T04:01:20.099449+00:00", "meta": {"OBJECT_NAME": "DEIMOS-1", "OBJECT_ID": "2009-041A", "EPOCH": "2025-12-14T08:13:02.540928", "MEAN_MOTION": 14.74956194, "ECCENTRICITY": 0.00027288, "INCLINATION": 97.7149, "RA_OF_ASC_NODE": 148.8708, "ARG_OF_PERICENTER": 77.8357, "MEAN_ANOMALY": 282.3159, "EPHEMERIS_TYPE": 0, "CLASSIFICATION_TYPE": "U", "NORAD_CAT_ID": 35681, "ELEMENT_SET_NO": 999, "REV_AT_EPOCH": 87963, "BSTAR": 0.00015765579, "MEAN_MOTION_DOT": 1.012e-05, "MEAN_MOTION_DDOT": 0}, "tle": {"line1": "1 35681U 09041A   25348.34239052  .00001012  00000+0  15766-3 0  9998", "line2": "2 35681  97.7149 148.8708 0002728  77.8357 282.3159 14.74956194879637"}}, "geometry": {"type": "Point", "coordinates": [136.9974654902336, 58.26147852116625]}}, {"type": "Feature", "properties": {"norad_id": 35682, "name": "DUBAISAT-1", "group": "resource", "lat": -8.872952324014939, "lon": 121.06571379925764, "alt_km": 645.7459419494426, "timestamp": "2025-12-15T04:01:20.099460+00:00", "meta": {"OBJECT_NAME": "DUBAISAT-1", "OBJECT_ID": "2009-041B", "EPOCH": "2025-12-14T08:31:13.328832", "MEAN_MOTION": 14.74610756, "ECCENTRICITY": 0.00094728, "INCLINATION": 97.9785, "RA_OF_ASC_NODE": 119.0108, "ARG_OF_PERICENTER": 308.9441, "MEAN_ANOMALY": 51.0923, "EPHEMERIS_TYPE": 0, "CLASSIFICATION_TYPE": "U", "NORAD_CAT_ID": 35682, "ELEMENT_SET_NO": 999, "REV_AT_EPOCH": 87785, "BSTAR": 0.00026965499, "MEAN_MOTION_DOT": 1.748e-05, "MEAN_MOTION_DDOT": 0}, "tle": {"line1": "1 35682U 09041B   25348.35501538  .00001748  00000+0  26965-3 0  9990", "line2": "2 35682  97.9785 119.0108 0009472 308.9441  51.0923 14.74610756877858"}}, "geometry": {"type": "Point", "coordinates": [121.06571379925764, -8.872952324014939]}}, {"type": "Feature", "properties": {"norad_id": 35931, "name": "OCEANSAT-2", "group": "resource", "lat": -53.39684328291382, "lon": 158.29684391071225, "alt_km": 913.3950437247186, "timestamp": "2025-12-15T04:01:20.099471+00:00", "meta": {"OBJECT_NAME": "OCEANSAT-2", "OBJECT_ID": "2009-051A", "EPOCH": "2025-12-14T08:02:04.268832", "MEAN_MOTION": 13.9962434, "ECCENTRICITY": 0.00161821, "INCLINATION": 98.2222, "RA_OF_ASC_NODE": 348.7737, "ARG_OF_PERICENTER": 40.8792, "MEAN_ANOMALY": 319.3585, "EPHEMERIS_TYPE": 0, "CLASSIFICATION_TYPE": "U", "NORAD_CAT_ID": 35931, "ELEMENT_SET_NO": 999, "REV_AT_EPOCH": 85347, "BSTAR": -6.1908638e-05, "MEAN_MOTION_DOT": -1.28e-06, "MEAN_MOTION_DDOT": 0}, "tle": {"line1": "1 35931U 09051A   25348.33477163 -.00000128  00000+0 -61909-4 0  9993", "line2": "2 35931  98.2222 348.7737 0016182  40.8792 319.3585 13.99624340853477"}}, "geometry": {"type": "Point", "coordinates": [158.29684391071225, -53.39684328291382]}}, {"type": "Feature", "properties": {"norad_id": 35946, "name": "WORLDVIEW-2 (WV-2)", "group": "resource", "lat": -31.714511544852293, "lon": 65.50761748877314, "alt_km": 772.4430227522253, "timestamp": "2025-12-15T04:01:20.099481+00:00", "meta": {"OBJECT_NAME": "WORLDVIEW-2 (WV-2)", "OBJECT_ID": "2009-055A", "EPOCH": "2025-12-14T08:07:40.961856", "MEAN_MOTION": 14.37724694, "ECCENTRICITY": 0.00051312, "INCLINATION": 98.4788, "RA_OF_ASC_NODE": 59.401, "ARG_OF_PERICENTER": 66.5899, "MEAN_ANOMALY": 293.5827, "EPHEMERIS_TYPE": 0, "CLASSIFICATION_TYPE": "U", "NORAD_CAT_ID": 35946, "ELEMENT_SET_NO": 999, "REV_AT_EPOCH": 84908, "BSTAR": 8.2575701e-05, "MEAN_MOTION_DOT": 2.05e-06, "MEAN_MOTION_DDOT": 0}, "tle": {"line1": "1 35946U 09055A   25348.33866854  .00000205  00000+0  82576-4 0  9999", "line2": "2 35946  98.4788  59.4010 0005131  66.5899 293.5827 14.37724694849087"}}, "geometry": {"type": "Point", "coordinates": [65.50761748877314, -31.714511544852293]}}, {"type": "Feature", "properties": {"norad_id": 36036, "name": "SMOS", "group": "resource", "lat": 20.774537984869504, "lon": 170.95152636013245, "alt_km": 758.8655972003344, "timestamp": "2025-12-15T04:01:20.099492+00:00", "meta": {"OBJECT_NAME": "SMOS", "OBJECT_ID": "2009-059A", "EPOCH": "2025-12-14T06:14:30.779808", "MEAN_MOTION": 14.39742688, "ECCENTRICITY": 0.00011009, "INCLINATION": 98.438, "RA_OF_ASC_NODE": 173.286, "ARG_OF_PERICENTER": 84.1524, "MEAN_ANOMALY": 275.979, "EPHEMERIS_TYPE": 0, "CLASSIFICATION_TYPE": "U", "NORAD_CAT_ID": 36036, "ELEMENT_SET_NO": 999, "REV_AT_EPOCH": 84684, "BSTAR": 0.00017462497, "MEAN_MOTION_DOT": 5.04e-06, "MEAN_MOTION_DDOT": 0}, "tle": {"line1": "1 36036U 09059A   25348.26007847  .00000504  00000+0  17462-3 0  9998", "line2": "2 36036  98.4380 173.2860 0001100  84.1524 275.9790 14.39742688846846"}}, "geometry": {"type": "Point", "coordinates": [170.95152636013245, 20.774537984869504]}}, {"type": "Feature", "properties": {"norad_id": 36110, "name": "YAOGAN-7", "group": "resource", "lat": 2.517562688670762, "lon": 51.27128284605165, "alt_km": 640.7896851168744, "timestamp": "2025-12-15T04:01:20.099503+00:00", "meta": {"OBJECT_NAME": "YAOGAN-7", "OBJECT_ID": "2009-069A", "EPOCH": "2025-12-14T06:05:37.309056", "MEAN_MOTION": 14.77735287, "ECCENTRICITY": 0.00233563, "INCLINATION": 98.0299, "RA_OF_ASC_NODE": 230.0055, "ARG_OF_PERICENTER": 276.1334, "MEAN_ANOMALY": 83.7216, "EPHEMERIS_TYPE": 0, "CLASSIFICATION_TYPE": "U", "NORAD_CAT_ID": 36110, "ELEMENT_SET_NO": 999, "REV_AT_EPOCH": 86231, "BSTAR": 0.00013094281, "MEAN_MOTION_DOT": 8.89e-06, "MEAN_MOTION_DDOT": 0}, "tle": {"line1": "1 36110U 09069A   25348.25390404  .00000889  00000+0  13094-3 0  9998", "line2": "2 36110  98.0299 230.0055 0023356 276.1334  83.7216 14.77735287862318"}}, "geometry": {"type": "Point", "coordinates": [51.27128284605165, 2.517562688670762]}}, {"type": "Feature", "properties": {"norad_id": 36605, "name": "TANDEM-X", "group": "resource", "lat": 63.611545461784175, "lon": -20.769055322938595, "alt_km": 500.900326292488, "timestamp": "2025-12-15T04:01:20.099514+00:00", "meta": {"OBJECT_NAME": "TANDEM-X", "OBJECT_ID": "2010-030A", "EPOCH": "2025-12-13T13:47:56.200128", "MEAN_MOTION": 15.19152153, "ECCENTRICITY": 0.00019496, "INCLINATION": 97.4458, "RA_OF_ASC_NODE": 352.9445, "ARG_OF_PERICENTER": 84.6239, "MEAN_ANOMALY": 275.5218, "EPHEMERIS_TYPE": 0, "CLASSIFICATION_TYPE": "U", "NORAD_CAT_ID": 36605, "ELEMENT_SET_NO": 999, "REV_AT_EPOCH": 85846, "BSTAR": 0.0001209332, "MEAN_MOTION_DOT": 2.473e-05, "MEAN_MOTION_DDOT": 0}, "tle": {"line1": "1 36605U 10030A   25347.57495602  .00002473  00000+0  12093-3 0  9996", "line2": "2 36605  97.4458 352.9445 0001949  84.6239 275.5218 15.19152153858460"}}, "geometry": {"type": "Point", "coordinates": [-20.769055322938595, 63.611545461784175]}}, {"type": "Feature", "properties": {"norad_id": 36795, "name": "CARTOSAT-2B", "group": "resource", "lat": 65.04164522362645, "lon": -124.78541277349393, "alt_km": 620.4827912569954, "timestamp": "2025-12-15T04:01:20.099524+00:00", "meta": {"OBJECT_NAME": "CARTOSAT-2B", "OBJECT_ID": "2010-035A", "EPOCH": "2025-12-14T08:01:21.868032", "MEAN_MOTION": 14.78728547, "ECCENTRICITY": 0.00130453, "INCLINATION": 97.7855, "RA_OF_ASC_NODE": 37.313, "ARG_OF_PERICENTER": 71.7948, "MEAN_ANOMALY": 288.4682, "EPHEMERIS_TYPE": 0, "CLASSIFICATION_TYPE": "U", "NORAD_CAT_ID": 36795, "ELEMENT_SET_NO": 999, "REV_AT_EPOCH": 83253, "BSTAR": 0.00017081564, "MEAN_MOTION_DOT": 1.205e-05, "MEAN_MOTION_DDOT": 0}, "tle": {"line1": "1 36795U 10035A   25348.33428088  .00001205  00000+0  17082-3 0  9995", "line2": "2 36795  97.7855  37.3130 0013045  71.7948 288.4682 14.78728547832531"}}, "geometry": {"type": "Point", "coordinates": [-124.78541277349393, 65.04164522362645]}}, {"type": "Feature", "properties": {"norad_id": 36834, "name": "YAOGAN-10", "group": "resource", "lat": -64.10903348480755, "lon": 172.31486730522946, "alt_km": 622.964931659285, "timestamp": "2025-12-15T04:01:20.099534+00:00", "meta": {"OBJECT_NAME": "YAOGAN-10", "OBJECT_ID": "2010-038A", "EPOCH": "2025-12-14T08:03:11.883744", "MEAN_MOTION": 14.84615793, "ECCENTRICITY": 0.00014137, "INCLINATION": 97.9148, "RA_OF_ASC_NODE": 8.1446, "ARG_OF_PERICENTER": 80.377, "MEAN_ANOMALY": 40.6155, "EPHEMERIS_TYPE": 0, "CLASSIFICATION_TYPE": "U", "NORAD_CAT_ID": 36834, "ELEMENT_SET_NO": 999, "REV_AT_EPOCH": 82977, "BSTAR": 0.00020248944, "MEAN_MOTION_DOT": 1.657e-05, "MEAN_MOTION_DDOT": 0}, "tle": {"line1": "1 36834U 10038A   25348.33555421  .00001657  00000+0  20249-3 0  9994", "line2": "2 36834  97.9148   8.1446 0001413  80.3770  40.6155 14.84615793829773"}}, "geometry": {"type": "Point", "coordinates": [172.31486730522946, -64.10903348480755]}}]}